OBJECT_NAME,OBJECT_ID,EPOCH,MEAN_MOTION,ECCENTRICITY,INCLINATION,RA_OF_ASC_NODE,ARG_OF_PERICENTER,MEAN_ANOMALY,EPHEMERIS_TYPE,CLASSIFICATION_TYPE,NORAD_CAT_ID,ELEMENT_SET_NO,REV_AT_EPOCH,BSTAR,MEAN_MOTION_DOT,MEAN_MOTION_DDOT
STARLINK-30787,2023-162L,2026-07-19T10:29:19.435200,15.27575528,.00007597,42.9995,105.2544,275.0489,85.0276,0,U,58128,999,15249,-.44585002E-4,-.1488E-4,0
STARLINK-30756,2023-162M,2026-07-19T03:47:54.944448,15.27580034,.00018823,43.0031,110.0028,261.2620,98.8018,0,U,58129,999,15241,.34230615E-4,.68E-5,0
STARLINK-30783,2023-162N,2026-07-19T04:03:25.770528,15.27578648,.00006809,43.0004,106.6873,265.2099,94.8675,0,U,58130,999,15245,.23999115E-4,.399E-5,0
STARLINK-30757,2023-162P,2026-07-19T02:23:43.560672,15.27574374,.00008002,43.0000,107.0268,259.6272,100.4489,0,U,58131,999,15244,.57956324E-4,.1333E-4,0
STARLINK-30770,2023-162Q,2026-07-19T02:23:00.438432,15.27578075,.00010996,43.0015,110.4109,264.5378,95.5348,0,U,58132,999,15239,.37631028E-4,.774E-5,0
STARLINK-30758,2023-162R,2026-07-19T10:21:54.378432,15.27567675,.00014031,43.0034,105.2207,260.1878,99.8815,0,U,58133,999,15249,.23661313E-4,.389E-5,0
STARLINK-30761,2023-162S,2026-07-19T10:19:20.454240,15.27589643,.00007169,43.0009,108.5977,281.7020,78.3751,0,U,58134,999,15245,-.99438165E-4,-.2998E-4,0
STARLINK-30772,2023-162T,2026-07-19T03:40:30.864000,15.27574402,.00014973,43.0039,109.9688,269.5959,90.4721,0,U,58135,999,15241,.52093842E-4,.1171E-4,0
STARLINK-30776,2023-162U,2026-07-19T10:29:04.570080,15.47118111,.00191603,42.9909,98.1823,216.0390,143.9178,0,U,58136,999,15257,.12248095E-2,.64261E-3,0
STARLINK-30782,2023-162V,2026-07-19T04:06:25.151616,15.27572991,.0001083,43.0016,110.1018,264.5618,95.5110,0,U,58137,999,15241,.11007125E-4,.41E-6,0
STARLINK-30769,2023-162W,2026-07-19T03:16:27.495840,15.27574128,.00014662,43.0057,109.8458,269.1645,90.9039,0,U,58138,999,15241,.327142E-5,-.172E-5,0
STARLINK-30775,2023-162X,2026-07-19T11:01:42.107232,15.27579319,.00005747,43.0031,107.9751,269.1521,90.9265,0,U,58139,999,15246,.12397636E-3,.3151E-4,0
STARLINK-30780,2023-162Y,2026-07-19T11:16:29.392032,15.27576865,.00011608,43.0039,108.0442,270.4417,89.6302,0,U,58140,999,15246,.34994417E-4,.701E-5,0
STARLINK-30802,2023-166A,2026-07-19T08:08:19.101408,15.31674685,.00012722,53.1605,327.5245,49.6093,310.5020,0,U,58150,999,15334,.15071051E-3,.4311E-4,0
STARLINK-30834,2023-166B,2026-07-18T18:32:42.213984,15.30198345,.00012327,53.1615,330.8857,79.0166,281.0973,0,U,58151,999,15324,.32979669E-3,.942E-4,0
STARLINK-30833,2023-166C,2026-07-19T08:41:55.127040,15.31701380,.00013705,53.1622,327.6663,99.7050,260.4106,0,U,58152,999,15334,.2805012E-5,-.278E-5,0
STARLINK-30831,2023-166D,2026-07-19T08:28:28.942464,15.31700723,.00013785,53.1595,327.6236,84.7023,275.4136,0,U,58153,999,15334,-.1953688E-5,-.426E-5,0
STARLINK-30797,2023-166E,2026-07-19T14:59:56.657184,15.30198397,.00010736,53.1585,326.9525,84.7464,275.3659,0,U,58154,999,15322,.7116654E-5,-.148E-5,0
STARLINK-30804,2023-166F,2026-07-19T08:15:02.582496,15.31697664,.0001156,53.1597,327.5603,104.7805,255.3324,0,U,58155,999,15334,.31726691E-4,.619E-5,0
STARLINK-30784,2023-166G,2026-07-19T08:34:40.411488,15.30186653,.00006206,53.1626,328.3464,41.5335,318.5713,0,U,58156,999,15318,-.19582023E-4,-.938E-5,0
STARLINK-30803,2023-166H,2026-07-19T09:08:40.121952,15.31704546,.00010442,53.1621,327.0664,97.8102,262.3018,0,U,58157,999,15320,.31379557E-4,.609E-5,0
STARLINK-30829,2023-166J,2026-07-19T02:05:55.684320,15.31698719,.0001229,53.1608,328.8048,95.9920,264.1221,0,U,58158,999,15330,-.5962389E-5,-.55E-5,0
STARLINK-30788,2023-166K,2026-07-19T01:45:45.357696,15.31704344,.00008859,53.1619,328.7193,65.0130,295.0964,0,U,58159,999,15315,-.13604177E-4,-.787E-5,0
STARLINK-30779,2023-166L,2026-07-19T01:39:01.634688,15.31714968,.00008213,53.1576,328.6935,100.4766,259.6328,0,U,58160,999,15330,-.15627145E-3,-.5213E-4,0
STARLINK-30773,2023-166M,2026-07-19T15:37:49.699488,15.30194015,.0001497,53.1606,326.6163,96.9679,263.1492,0,U,58161,999,15338,.56682382E-4,.1319E-4,0
STARLINK-30816,2023-166N,2026-07-19T15:33:16.240032,15.30194157,.00011519,53.1589,326.6158,102.9618,257.1512,0,U,58162,999,15338,.32881416E-4,.615E-5,0
STARLINK-30763,2023-166P,2026-07-19T11:01:00.815808,15.30162446,.00012591,53.1604,314.9841,81.0619,279.0524,0,U,58163,999,15352,.1548767E-3,.4225E-4,0
STARLINK-30815,2023-166Q,2026-07-19T15:31:14.262240,15.31700895,.00004934,53.1621,325.9043,63.6885,296.4167,0,U,58164,999,15339,.11939934E-4,.6E-7,0
STARLINK-30814,2023-166R,2026-07-19T11:56:17.636640,15.30194246,.00013257,53.1625,327.1020,98.2980,261.8171,0,U,58165,999,15336,.35871491E-4,.703E-5,0
STARLINK-30789,2023-166S,2026-07-19T15:42:21.681504,15.30220031,.00021188,53.1595,326.6588,83.5190,276.6052,0,U,58166,999,15338,-.32954233E-4,-.1336E-4,0
STARLINK-30811,2023-166T,2026-07-19T08:35:03.900192,15.31698400,.00012561,53.1589,326.9466,48.9449,311.1661,0,U,58167,999,15320,.37522425E-4,.799E-5,0
STARLINK-30812,2023-166U,2026-07-19T12:00:50.814432,15.30198369,.00011861,53.1594,327.1204,83.8286,276.2849,0,U,58168,999,15321,.22591903E-4,.31E-5,0
STARLINK-30771,2023-166V,2026-07-19T15:28:43.232448,15.30197237,.00006098,53.1613,326.5957,55.7091,304.3967,0,U,58169,999,15338,.64196905E-4,.1543E-4,0
STARLINK-30764,2023-166W,2026-07-19T09:07:56.673120,15.30190818,.00011667,53.1636,327.7911,91.1123,269.0011,0,U,58170,999,15334,.10176745E-3,.2655E-4,0
STARLINK-30752,2023-166X,2026-07-19T15:19:35.067648,15.30200863,.00009221,53.1621,326.5498,86.0265,274.0842,0,U,58171,999,15338,.73209153E-4,.181E-4,0
STARLINK-30753,2023-167A,2026-07-18T18:54:16.916256,15.27577567,.00012217,43.0016,123.1400,255.9672,104.1044,0,U,58175,999,15103,.28505707E-4,.522E-5,0
STARLINK-30824,2023-167B,2026-07-19T02:50:36.881952,15.27589110,.00014316,43.0030,121.3216,261.0921,98.9769,0,U,58176,999,15108,.17253436E-3,.449E-4,0
STARLINK-30791,2023-167C,2026-07-19T02:08:03.173568,15.27583521,.00005834,43.0010,121.0925,278.7373,81.3412,0,U,58177,999,15108,.11083572E-3,.279E-4,0
STARLINK-30810,2023-167D,2026-07-19T03:23:42.635616,15.27577460,.00007853,42.9997,120.6349,278.7797,81.2966,0,U,58178,999,15109,.33827894E-4,.669E-5,0
STARLINK-30819,2023-167E,2026-07-19T04:09:58.106016,15.27576242,.00011253,43.0033,120.8691,275.4738,84.5985,0,U,58179,999,15109,.34390374E-4,.684E-5,0
STARLINK-30806,2023-167F,2026-07-19T11:02:08.457504,15.36055558,.00085535,42.9982,116.1055,192.3127,167.7520,0,U,58180,999,15117,.11169015E-2,.40051E-3,0
STARLINK-30821,2023-167G,2026-07-18T20:02:31.935840,15.27574391,.0001331,43.0024,122.6257,265.2821,94.7878,0,U,58181,999,15103,.22068154E-4,.345E-5,0
STARLINK-30778,2023-167H,2026-07-19T03:57:00.707328,15.27578927,.00009534,43.0033,120.7948,261.2184,98.8560,0,U,58182,999,15109,.25944549E-4,.452E-5,0
STARLINK-30809,2023-167J,2026-07-19T04:46:58.320768,15.27576445,.0001186,43.0027,121.0550,265.3587,94.7129,0,U,58183,999,15109,.8638264E-5,-.24E-6,0
STARLINK-30801,2023-167K,2026-07-19T03:18:22.045824,15.27575916,.00008577,43.0012,121.4514,245.0702,115.0060,0,U,58184,999,15108,.29390273E-4,.547E-5,0
STARLINK-30793,2023-167L,2026-07-19T04:08:06.807264,15.27574577,.00014566,43.0045,120.8515,265.8542,94.2143,0,U,58185,999,15109,.12415341E-4,.79E-6,0
STARLINK-30755,2023-167M,2026-07-19T03:40:22.029600,15.27563012,.00010945,43.0023,120.7142,262.1575,97.9152,0,U,58186,999,15109,.58441656E-4,.1346E-4,0
STARLINK-30760,2023-167N,2026-07-18T18:48:43.737120,15.27576444,.00010908,43.0029,123.0959,265.4151,94.6576,0,U,58187,999,15103,.19290046E-4,.269E-5,0
STARLINK-30826,2023-167P,2026-07-19T11:57:02.640672,15.27591997,.00020134,43.0030,118.9978,256.6730,103.3897,0,U,58188,999,15114,.55649042E-4,.127E-4,0
STARLINK-30796,2023-167Q,2026-07-19T02:00:39.372192,15.27571340,.00012709,43.0041,121.0510,267.5911,92.4796,0,U,58189,999,15108,.5907294E-5,-.1E-5,0
STARLINK-30820,2023-167R,2026-07-19T03:29:15.392256,15.27578868,.00006921,43.0019,120.6544,255.7453,104.3322,0,U,58190,999,15109,.27145838E-4,.485E-5,0
STARLINK-30785,2023-167S,2026-07-19T04:22:55.068384,15.27574843,.00014027,43.0032,120.9296,265.7030,94.3662,0,U,58191,999,15109,.35263406E-4,.708E-5,0
STARLINK-30807,2023-167T,2026-07-19T12:02:35.858688,15.27585211,.00015603,43.0032,119.0274,276.9604,83.1071,0,U,58192,999,15114,.31123825E-3,.8313E-4,0
STARLINK-30822,2023-167U,2026-07-19T03:03:33.883200,15.27579987,.00009917,43.0011,121.3728,262.0388,98.0351,0,U,58193,999,15108,.3560129E-4,.718E-5,0
STARLINK-30830,2023-167V,2026-07-19T11:21:53.164800,15.27576535,.00006066,43.0021,118.7975,271.7810,88.2972,0,U,58194,999,15114,.18293587E-4,.242E-5,0
STARLINK-30827,2023-167W,2026-07-19T04:59:42.928800,15.27571465,.00012481,43.0030,120.2659,271.3831,88.6877,0,U,58195,999,15110,.95207E-5,0,0
STARLINK-30798,2023-167X,2026-07-19T02:54:18.640512,15.27575993,.00013144,43.0032,121.3281,264.0400,96.0302,0,U,58196,999,15108,.29333506E-4,.545E-5,0
STARLINK-30762,2023-167Y,2026-07-19T03:09:06.346080,15.27574288,.00018981,43.0046,121.3982,264.6634,95.4001,0,U,58197,999,15108,-.19126884E-4,-.789E-5,0
STARLINK-30800,2023-170A,2026-07-19T15:07:22.337760,15.27577284,.0001222,43.0036,169.4752,268.2188,91.8524,0,U,58206,999,15047,.22501422E-4,.357E-5,0
STARLINK-30845,2023-170B,2026-07-19T08:21:03.229920,15.07831834,.00011808,42.9983,197.1864,55.8606,304.2350,0,U,58207,999,15012,.54358648E-3,.8263E-4,0
STARLINK-30841,2023-170C,2026-07-18T21:36:51.680160,15.27569259,.00011588,43.0019,173.4462,266.2078,93.8641,0,U,58208,999,15036,-.26745131E-4,-.998E-5,0
STARLINK-30839,2023-170D,2026-07-19T07:34:52.831200,15.27580069,.00014774,43.0033,170.5635,275.4052,84.6631,0,U,58209,999,15043,.57094577E-4,.1309E-4,0
STARLINK-30846,2023-170E,2026-07-19T05:53:32.179776,15.27576455,.00015281,43.0031,171.7475,282.2438,77.8243,0,U,58210,999,15041,.62288843E-4,.1452E-4,0
STARLINK-30838,2023-170F,2026-07-19T07:49:40.611072,15.27557823,.00012335,43.0020,170.6348,259.6173,100.4539,0,U,58211,999,15043,.65777847E-4,.1547E-4,0
